TEVEL2-3                
1 63218U 25052J   26068.64540225  .00020365  00000+0  69446-3 0  9991
2 63218  97.3994 324.7775 0004761 105.7353 254.4413 15.30377031 54855
STARLINK-34276          
1 64263U 25120H   26068.40011151  .00015066  00000+0  51971-3 0  9999
2 64263  53.1586 117.9046 0001203  90.2666 269.8472 15.30204066 43871
